CTC2_L_00501001-01
1 10000U 25492CF  26075.70047454  .00000000  00000+0  00000-0 0  9993
2 10000 101.2000   0.0000 0000000   0.0000   0.0000 12.53473438    18
CTC2_L_00501001-02
1 10001U 26092WL  26075.70047454  .00000000  00000+0  00000-0 0  9991
2 10001 101.2000   0.0000 0000000   0.0000  45.0000 12.53473438    18
CTC2_L_00501001-03
1 10002U 23663HQ  26075.70047454  .00000000  00000+0  00000-0 0  9993
2 10002 101.2000   0.0000 0000000   0.0000  90.0000 12.53473438    19
CTC2_L_00501001-04
1 10003U 22409KU  26075.70047454  .00000000  00000+0  00000-0 0  9991
2 10003 101.2000   0.0000 0000000   0.0000 135.0000 12.53473438    10
CTC2_L_00501001-05
1 10004U 22285RR  26075.70047454  .00000000  00000+0  00000-0 0  9994
2 10004 101.2000   0.0000 0000000   0.0000 180.0000 12.53473438    11
CTC2_L_00501001-06
1 10005U 26625DC  26075.70047454  .00000000  00000+0  00000-0 0  9997
2 10005 101.2000   0.0000 0000000   0.0000 225.0000 12.53473438    12
CTC2_L_00501001-07
1 10006U 26194II  26075.70047454  .00000000  00000+0  00000-0 0  9999
2 10006 101.2000   0.0000 0000000   0.0000 270.0000 12.53473438    13
CTC2_L_00501001-08
1 10007U 23208AU  26075.70047454  .00000000  00000+0  00000-0 0  9993
2 10007 101.2000   0.0000 0000000   0.0000 315.0000 12.53473438    14
CTC2_L_00501002-01
1 10008U 26258HA  26075.70047454  .00000000  00000+0  00000-0 0  9992
2 10008 101.2000  12.0000 0000000   0.0000   6.0000 12.53473438    15
CTC2_L_00501002-02
1 10009U 25923LF  26075.70047454  .00000000  00000+0  00000-0 0  9991
2 10009 101.2000  12.0000 0000000   0.0000  51.0000 12.53473438    16
CTC2_L_00501002-03
1 10010U 22527W   26075.70047454  .00000000  00000+0  00000-0 0  9990
2 10010 101.2000  12.0000 0000000   0.0000  96.0000 12.53473438    17
CTC2_L_00501002-04
1 10011U 22148WI  26075.70047454  .00000000  00000+0  00000-0 0  9990
2 10011 101.2000  12.0000 0000000   0.0000 141.0000 12.53473438    19
CTC2_L_00501002-05
1 10012U 22358ZP  26075.70047454  .00000000  00000+0  00000-0 0  9994
2 10012 101.2000  12.0000 0000000   0.0000 186.0000 12.53473438    19
CTC2_L_00501002-06
1 10013U 26664UX  26075.70047454  .00000000  00000+0  00000-0 0  9999
2 10013 101.2000  12.0000 0000000   0.0000 231.0000 12.53473438    11
CTC2_L_00501002-07
1 10014U 24418S   26075.70047454  .00000000  00000+0  00000-0 0  9995
2 10014 101.2000  12.0000 0000000   0.0000 276.0000 12.53473438    11
CTC2_L_00501002-08
1 10015U 23746AF  26075.70047454  .00000000  00000+0  00000-0 0  9999
2 10015 101.2000  12.0000 0000000   0.0000 321.0000 12.53473438    13
CTC2_L_00501003-01
1 10016U 22961HR  26075.70047454  .00000000  00000+0  00000-0 0  9998
2 10016 101.2000  24.0000 0000000   0.0000  12.0000 12.53473438    14
CTC2_L_00501003-02
1 10017U 22038FS  26075.70047454  .00000000  00000+0  00000-0 0  9994
2 10017 101.2000  24.0000 0000000   0.0000  57.0000 12.53473438    14
CTC2_L_00501003-03
1 10018U 24186DR  26075.70047454  .00000000  00000+0  00000-0 0  9991
2 10018 101.2000  24.0000 0000000   0.0000 102.0000 12.53473438    16
CTC2_L_00501003-04
1 10019U 23675EZ  26075.70047454  .00000000  00000+0  00000-0 0  9994
2 10019 101.2000  24.0000 0000000   0.0000 147.0000 12.53473438    16
CTC2_L_00501003-05
1 10020U 25068VR  26075.70047454  .00000000  00000+0  00000-0 0  9994
2 10020 101.2000  24.0000 0000000   0.0000 192.0000 12.53473438    18
CTC2_L_00501003-06
1 10021U 26897BN  26075.70047454  .00000000  00000+0  00000-0 0  9996
2 10021 101.2000  24.0000 0000000   0.0000 237.0000 12.53473438    19
CTC2_L_00501003-07
1 10022U 25271SF  26075.70047454  .00000000  00000+0  00000-0 0  9992
2 10022 101.2000  24.0000 0000000   0.0000 282.0000 12.53473438    10
CTC2_L_00501003-08
1 10023U 25234NQ  26075.70047454  .00000000  00000+0  00000-0 0  9992
2 10023 101.2000  24.0000 0000000   0.0000 327.0000 12.53473438    11
CTC2_L_00501004-01
1 10024U 26228IF  26075.70047454  .00000000  00000+0  00000-0 0  9997
2 10024 101.2000  36.0000 0000000   0.0000  18.0000 12.53473438    12
CTC2_L_00501004-02
1 10025U 26851IT  26075.70047454  .00000000  00000+0  00000-0 0  9990
2 10025 101.2000  36.0000 0000000   0.0000  63.0000 12.53473438    13
CTC2_L_00501004-03
1 10026U 22434IO  26075.70047454  .00000000  00000+0  00000-0 0  9994
2 10026 101.2000  36.0000 0000000   0.0000 108.0000 12.53473438    14
CTC2_L_00501004-04
1 10027U 22653ZX  26075.70047454  .00000000  00000+0  00000-0 0  9998
2 10027 101.2000  36.0000 0000000   0.0000 153.0000 12.53473438    15
CTC2_L_00501004-05
1 10028U 24365YM  26075.70047454  .00000000  00000+0  00000-0 0  9991
2 10028 101.2000  36.0000 0000000   0.0000 198.0000 12.53473438    15
CTC2_L_00501004-06
1 10029U 25785OA  26075.70047454  .00000000  00000+0  00000-0 0  9999
2 10029 101.2000  36.0000 0000000   0.0000 243.0000 12.53473438    17
CTC2_L_00501004-07
1 10030U 22014RW  26075.70047454  .00000000  00000+0  00000-0 0  9993
2 10030 101.2000  36.0000 0000000   0.0000 288.0000 12.53473438    18
CTC2_L_00501004-08
1 10031U 23977SZ  26075.70047454  .00000000  00000+0  00000-0 0  9993
2 10031 101.2000  36.0000 0000000   0.0000 333.0000 12.53473438    10
CTC2_L_00501005-01
1 10032U 23783KN  26075.70047454  .00000000  00000+0  00000-0 0  9999
2 10032 101.2000  48.0000 0000000   0.0000  24.0000 12.53473438    11
CTC2_L_00501005-02
1 10033U 24064ZZ  26075.70047454  .00000000  00000+0  00000-0 0  9993
2 10033 101.2000  48.0000 0000000   0.0000  69.0000 12.53473438    11
CTC2_L_00501005-03
1 10034U 26512T   26075.70047454  .00000000  00000+0  00000-0 0  9994
2 10034 101.2000  48.0000 0000000   0.0000 114.0000 12.53473438    13
CTC2_L_00501005-04
1 10035U 24488PL  26075.70047454  .00000000  00000+0  00000-0 0  9995
2 10035 101.2000  48.0000 0000000   0.0000 159.0000 12.53473438    13
CTC2_L_00501005-05
1 10036U 23944DU  26075.70047454  .00000000  00000+0  00000-0 0  9992
2 10036 101.2000  48.0000 0000000   0.0000 204.0000 12.53473438    15
CTC2_L_00501005-06
1 10037U 22002XC  26075.70047454  .00000000  00000+0  00000-0 0  9997
2 10037 101.2000  48.0000 0000000   0.0000 249.0000 12.53473438    15
CTC2_L_00501005-07
1 10038U 26812UO  26075.70047454  .00000000  00000+0  00000-0 0  9991
2 10038 101.2000  48.0000 0000000   0.0000 294.0000 12.53473438    16
CTC2_L_00501005-08
1 10039U 26593VW  26075.70047454  .00000000  00000+0  00000-0 0  9998
2 10039 101.2000  48.0000 0000000   0.0000 339.0000 12.53473438    17
CTC2_L_00501006-01
1 10040U 23654QY  26075.70047454  .00000000  00000+0  00000-0 0  9995
2 10040 101.2000  60.0000 0000000   0.0000  30.0000 12.53473438    11
CTC2_L_00501006-02
1 10041U 25204ZF  26075.70047454  .00000000  00000+0  00000-0 0  9999
2 10041 101.2000  60.0000 0000000   0.0000  75.0000 12.53473438    11
CTC2_L_00501006-03
1 10042U 25040OC  26075.70047454  .00000000  00000+0  00000-0 0  9998
2 10042 101.2000  60.0000 0000000   0.0000 120.0000 12.53473438    13
CTC2_L_00501006-04
1 10043U 24865NO  26075.70047454  .00000000  00000+0  00000-0 0  9993
2 10043 101.2000  60.0000 0000000   0.0000 165.0000 12.53473438    13
CTC2_L_00501006-05
1 10044U 22162AD  26075.70047454  .00000000  00000+0  00000-0 0  9992
2 10044 101.2000  60.0000 0000000   0.0000 210.0000 12.53473438    15
CTC2_L_00501006-06
1 10045U 23163GF  26075.70047454  .00000000  00000+0  00000-0 0  9995
2 10045 101.2000  60.0000 0000000   0.0000 255.0000 12.53473438    15
CTC2_L_00501006-07
1 10046U 23654BE  26075.70047454  .00000000  00000+0  00000-0 0  9991
2 10046 101.2000  60.0000 0000000   0.0000 300.0000 12.53473438    17
CTC2_L_00501006-08
1 10047U 26082CZ  26075.70047454  .00000000  00000+0  00000-0 0  9990
2 10047 101.2000  60.0000 0000000   0.0000 345.0000 12.53473438    17
CTC2_L_00501007-01
1 10048U 26733RG  26075.70047454  .00000000  00000+0  00000-0 0  9994
2 10048 101.2000  72.0000 0000000   0.0000  36.0000 12.53473438    18
CTC2_L_00501007-02
1 10049U 22558MN  26075.70047454  .00000000  00000+0  00000-0 0  9996
2 10049 101.2000  72.0000 0000000   0.0000  81.0000 12.53473438    19
CTC2_L_00501007-03
1 10050U 22660KX  26075.70047454  .00000000  00000+0  00000-0 0  9992
2 10050 101.2000  72.0000 0000000   0.0000 126.0000 12.53473438    11
CTC2_L_00501007-04
1 10051U 25877DT  26075.70047454  .00000000  00000+0  00000-0 0  9996
2 10051 101.2000  72.0000 0000000   0.0000 171.0000 12.53473438    12
CTC2_L_00501007-05
1 10052U 26378DP  26075.70047454  .00000000  00000+0  00000-0 0  9994
2 10052 101.2000  72.0000 0000000   0.0000 216.0000 12.53473438    13
CTC2_L_00501007-06
1 10053U 22795BU  26075.70047454  .00000000  00000+0  00000-0 0  9994
2 10053 101.2000  72.0000 0000000   0.0000 261.0000 12.53473438    14
CTC2_L_00501007-07
1 10054U 25252WS  26075.70047454  .00000000  00000+0  00000-0 0  9996
2 10054 101.2000  72.0000 0000000   0.0000 306.0000 12.53473438    15
CTC2_L_00501007-08
1 10055U 25721ZX  26075.70047454  .00000000  00000+0  00000-0 0  9998
2 10055 101.2000  72.0000 0000000   0.0000 351.0000 12.53473438    16
CTC2_L_00501008-01
1 10056U 26665HB  26075.70047454  .00000000  00000+0  00000-0 0  9997
2 10056 101.2000  84.0000 0000000   0.0000  42.0000 12.53473438    17
CTC2_L_00501008-02
1 10057U 24795TZ  26075.70047454  .00000000  00000+0  00000-0 0  9990
2 10057 101.2000  84.0000 0000000   0.0000  87.0000 12.53473438    17
CTC2_L_00501008-03
1 10058U 23073I   26075.70047454  .00000000  00000+0  00000-0 0  9999
2 10058 101.2000  84.0000 0000000   0.0000 132.0000 12.53473438    19
CTC2_L_00501008-04
1 10059U 26704ZG  26075.70047454  .00000000  00000+0  00000-0 0  9994
2 10059 101.2000  84.0000 0000000   0.0000 177.0000 12.53473438    19
CTC2_L_00501008-05
1 10060U 22116FB  26075.70047454  .00000000  00000+0  00000-0 0  9999
2 10060 101.2000  84.0000 0000000   0.0000 222.0000 12.53473438    12
CTC2_L_00501008-06
1 10061U 24334UN  26075.70047454  .00000000  00000+0  00000-0 0  9994
2 10061 101.2000  84.0000 0000000   0.0000 267.0000 12.53473438    12
